{
"type": "FeatureCollection",
"crs": { "type": "name", "properties": { "name": "urn:ogc:def:crs:EPSG::28992" } },
"features": [
{ "type": "Feature", "properties": { }, "geometry": { "type": "LineString", "coordinates": [ [ 121698.520361021568533, 487957.873815794300754 ], [ 121711.792968349094735, 487921.711080402659718 ], [ 121725.51023793395143, 487897.940672646276653 ], [ 121745.915998766664416, 487877.418767983559519 ], [ 121767.740487213042798, 487857.221200124709867 ], [ 121800.472597961488646, 487833.77918907313142 ], [ 121951.148071019430063, 487820.750802097376436 ], [ 121971.134278454817832, 487813.662726057111286 ], [ 121986.202184642519569, 487808.332290518097579 ], [ 121995.714368826942518, 487799.055654193216469 ], [ 122000.602233950397931, 487792.736312001245096 ], [ 122013.89284889830742, 487773.131010649958625 ], [ 122031.649982757196994, 487746.285725924477447 ], [ 122027.613560431753285, 487732.270648813981097 ], [ 121990.379680492071202, 487704.980694411788136 ], [ 121975.605477293836884, 487687.087476604094263 ], [ 121913.924099559226306, 487485.114947595924605 ], [ 121908.421323087037308, 487467.805136705690529 ], [ 121886.576858801578055, 487399.098925687547307 ], [ 121898.129601197812008, 487394.437177235435229 ], [ 121913.177415098878555, 487387.960606109816581 ], [ 121951.627737343267654, 487351.396187121979892 ], [ 121955.872350446006749, 487347.606903003004845 ], [ 122014.850691091123736, 487294.938611416320782 ], [ 122007.787630984355928, 487282.590555604023393 ], [ 121993.888472549180733, 487239.912032314518001 ], [ 121990.875619906655629, 487231.364538813941181 ], [ 121978.414594855916221, 487186.862772650783882 ], [ 121974.75751318258699, 487177.718751989479642 ], [ 121960.426058664161246, 487148.884967855643481 ], [ 121934.335751461578184, 487126.605791462119669 ], [ 121927.645517521857983, 487121.176227280462626 ], [ 121897.825469464500202, 487098.288007965951692 ], [ 121906.038848271389725, 487075.923679498198908 ], [ 121910.546119097678456, 487065.567782542842906 ], [ 121921.428679367279983, 487045.132779366045725 ], [ 121946.998793735503568, 487025.255903155251872 ], [ 121928.653363153163809, 487007.319985159731004 ], [ 121912.317881990835303, 486990.538974946190137 ], [ 121901.443752651073737, 486978.728454902826343 ], [ 121883.536033310170751, 486960.0999060869799 ], [ 121859.606140312040225, 486932.143082155787852 ], [ 121844.415394316863967, 486922.609286261955276 ], [ 121826.74717255611904, 486908.263153259584215 ] ] } }
]
}
